# Made by eph2tle, compiled Dec 19 2021 16:19:15
# Run at Sun Dec 26 08:15:12 2021
#
#    The following TLEs (Two-Line Elements) were generated by fitting
# a numerically-integrated ephemeris,  based on the orbit given below,
# to the SDP4/SGP4 models.  Each TLE is good for the interval between
# its epoch and the epoch of the subsequent TLE (usually one day).
# The maximum deviation between the numerically integrated ephemerides
# and the TLE-based ephemeris, in kilometers,  is given for each TLE
# as the "worst residual".
#
#    This fitting is done using the 'eph2tle' code packaged with Find_Orb.
# The code has details on how the TLEs were computed :
#
#    https://github.com/Bill-Gray/find_orb/eph2tle.cpp
#
#    Be warned:  the error given is that between the numerically
# integrated ephems and the TLE model.  There will usually be at
# least some additional difference between the ephems and the actual
# motion of the satellite,  especially if the ephemerides are based
# on a short arc.  If the following orbital elements say something
# like "[based on] 10 observations 2015 Jan. 1-13",  and the TLEs
# are for 2015 May,  the extrapolation may be tenuous at best.  If
# your application requires a specific level of accuracy,  you may
# want to contact me;  I can give you some idea as to the fit of the
# underlying data (and possibly TLEs based on newer data).
#
#   You can usually find the underlying observational data,  and the
# fitted orbit,  residuals,  ephemerides,  and sometimes some comments
# about the object,  among the pages listed at
#
#    https://www.projectpluto.com/pluto/mpecs/pseudo.htm
#
#    WARNING:  for this object,  "normal" TLEs cannot be fitted.  (This
# usually means an object with an hyperbolic or nearly-parabolic orbit.)
# For this and similar cases,   an alternative model is used,  in which
# most of the traditional TLE data is replaced by six signed 8-digit hex
# numbers.  These six numbers are a state vector,  numerically integrated
# using a simplified force model.  This is necessary for objects at L2 or
# L1,  and sometimes for objects in high orbits where the SDP4/SGP4 model
# fails.  I'll be posting source code for this.  But be aware:  it's my
# own extension,  doesn't work with other code,  and is therefore used
# only when necessary.
#
#    Also,  if you use a TLE outside the "correct" time range (between
# its MJD and that of the next TLE),  all bets are off.  I've carefully
# computed and minimized the worst error over the "correct" time frame,
# but the ephemeris may (or may not) diverge wildly outside of it.
#
# Ephem range: 59573.000000 59670.000000 1.000000
# Created Sun Dec 26 08:14:41 2021
# Ephemeris start: 25 Dec 2021  0:00:00
# Ephemeris end:    1 Apr 2022  0:00:00
# Times are all TDT
# Positions/velocities are in equatorial J2000
# Orbital elements:  JWST Booster
#    Perigee 2021 Dec 25.527566 +/- 5.3e-5 TT = 12:39:41.6 (JD 2459574.027566)
# Epoch 2021 Dec 26.0 TT = JDT 2459574.5                        Find_Orb
# M   1.267170214 +/- 0.008           (J2000 equator)
# n   2.682215840 +/- 0.0184          Peri.  191.971711 +/- 0.0050
# a   0.007401997 +/- 3.39e-5         Node    89.026978 +/- 0.006
# e   0.99396764 +/- 2.82e-5          Incl.    4.196309 +/- 0.00017
# P 134.21d                  H 27.2   G  0.15   U 10.1
# q 6679.770964 +/- 1.07    Q 0.014759343 +/- 6.78e-5
# 27 of 29 observations 2021 Dec. 25-26 (6.2 hr); mean residual 0".346
#
# After 2021 Dec 28 :
#
# Orbital elements:  JWST Booster = 2021-130B = NORAD 50464
#    Perihelion 2023 Jan 17.391879 +/- 0.0151 TT =  9:24:18.3 (JD 2459961.891879)
# Epoch 2023 Jan  1.0 TT; AMR 0.0077072 +/- 0.00259 m^2/kg   Earth MOID: 0.0174
# M 344.472168165 +/- 0.014           (J2000 ecliptic)          Find_Orb
# n   0.947288078 +/- 4.94e-6         Peri.  233.192662 +/- 0.028
# a   1.026789300 +/- 3.57e-6         Node   228.961875 +/- 0.014
# e   0.02577592 +/- 4.99e-7          Incl.    0.287751 +/- 0.000040
# P   1.04/380.03d           H 27.2   G  0.15   U  4.6
# q 1.000322860 +/- 3.1e-6    Q 1.053255741 +/- 4.07e-6
# 92 of 163 observations 2021 Dec. 27-2022 Jan. 2; mean residual 0".276
#
# 1 NoradU COSPAR   Epoch.epoch     dn/dt/2  d2n/dt2/6 BSTAR    T El# C
# 2 NoradU Inclina RAAscNode Eccent  ArgPeri MeanAno  MeanMotion Rev# C

# Worst residual: 0.69 km
# MJD 59573.000000 (2021 Dec 25  0:00)
JWST Booster
1 50464U 21130B   21359.99919926 +000IXE75 +0026KZWE -0001A0B7H 14566
2 50464                          +0000365A +000DZ5V9 +00000800     07

# Worst residual: 0.69 km
# MJD 59574.000000 (2021 Dec 26  0:00)
JWST Booster
1 50464U 21130B   21359.99919926 +000IXE75 +0026KZWE -0001A0B7H 14566
2 50464                          +0000365A +000DZ5V9 +00000800     07

# Worst residual: 0.92 km
# MJD 59575.000000 (2021 Dec 27  0:00)
JWST Booster
1 50464U 21130B   21360.99919926 +000EYH9A +004TASLB -0000W66XH 14565
2 50464                          -0000OZEU +00094YUG +000028MV     05

# Worst residual: 0.98 km
# MJD 59576.000000 (2021 Dec 28  0:00)
JWST Booster = 2021-130B = NORAD 50464
1 50464U 21130B   21361.99919926 +0008HF9J +006SAT1B -0000ASPTH 14655
2 50464                          -0000S7AW +0007GTXM +00002PV7     05

# Worst residual: 0.73 km
# MJD 59577.000000 (2021 Dec 29  0:00)
JWST Booster = 2021-130B = NORAD 50464
1 50464U 21130B   21362.99919926 +0001NDZ1 +008GDVNL +0000EKN1H 14652
2 50464                          -0000SJ2F +0006IH5Z +000035WT     03

# Worst residual: 0.56 km
# MJD 59578.000000 (2021 Dec 30  0:00)
JWST Booster = 2021-130B = NORAD 50464
1 50464U 21130B   21363.99919926 -00055JD3 +009XQEEQ +0001855MH 14654
2 50464                          -0000S3U6 +0005VF4H +00003P5L     08

# Worst residual: 0.34 km
# MJD 59579.000000 (2021 Dec 31  0:00)
JWST Booster = 2021-130B = NORAD 50464
1 50464U 21130B   21364.99919926 -000BTW9Z +00BACYPX +00026T78H 14656
2 50464                          -0000RJ07 +0005ELQB +00004CEX     08

# Worst residual: 0.31 km
# MJD 59580.000000 (2022 Jan  1  0:00)
JWST Booster = 2021-130B = NORAD 50464
1 50464U 21130B   21365.99919926 -000IDGUY +00CJGCQ2 +0003BIWLH 14650
2 50464                          -0000R0TX +00051PJ5 +000053GC     01

# Worst residual: 0.43 km
# MJD 59581.000000 (2022 Jan  2  0:00)
JWST Booster = 2021-130B = NORAD 50464
1 50464U 21130B   22001.99919926 -000OTEM1 +00DPSIK6 +0004N460H 14654
2 50464                          -0000QP4U +0004RH3O +00005XKT     08

# Worst residual: 0.53 km
# MJD 59582.000000 (2022 Jan  3  0:00)
JWST Booster = 2021-130B = NORAD 50464
1 50464U 21130B   22002.99919926 -000V7HU9 +00ETWURP +000667ODH 14659
2 50464                          -0000QLKG +0004J4NH +00006TUF     06

# Worst residual: 0.45 km
# MJD 59583.000000 (2022 Jan  4  0:00)
JWST Booster = 2021-130B = NORAD 50464
1 50464U 21130B   22003.99919926 -0011LQO0 +00FW7C9J +0007X7M5H 14652
2 50464                          -0000QQDZ +0004C5TA +00007R95     02

# Worst residual: 0.28 km
# MJD 59584.000000 (2022 Jan  5  0:00)
JWST Booster = 2021-130B = NORAD 50464
1 50464U 21130B   22004.99919926 -00182330 +00GWY9N1 +0009W9U6H 14657
2 50464                          -0000R2WC +000467WK +00008OWM     09

# Worst residual: 0.21 km
# MJD 59585.000000 (2022 Jan  6  0:00)
JWST Booster = 2021-130B = NORAD 50464
1 50464U 21130B   22005.99919926 -001EM8GT +00HWDDA8 +000C3DB5H 14652
2 50464                          -0000RLUP +00041214 +00009M49     06

# Worst residual: 0.15 km
# MJD 59586.000000 (2022 Jan  7  0:00)
JWST Booster = 2021-130B = NORAD 50464
1 50464U 21130B   22006.99919926 -001LBKAT +00IUMKT4 +000EIC7FH 14650
2 50464                          -0000S9T7 +0003WHXP +0000AIGO     01

# Worst residual: 0.23 km
# MJD 59587.000000 (2022 Jan  8  0:00)
JWST Booster = 2021-130B = NORAD 50464
1 50464U 21130B   22007.99919926 -001S73RR +00JRUK9L +000H4Y1AH 14654
2 50464                          -0000T1EE +0003SF7X +0000BDQR     03

# Worst residual: 0.38 km
# MJD 59588.000000 (2022 Jan  9  0:00)
JWST Booster = 2021-130B = NORAD 50464
1 50464U 21130B   22008.99919926 -001Z9L0P +00KO53L5 +000JYXDCH 14653
2 50464                          -0000TVG6 +0003OQRL +0000C7XG     08

# Worst residual: 0.49 km
# MJD 59589.000000 (2022 Jan 10  0:00)
JWST Booster = 2021-130B = NORAD 50464
1 50464U 21130B   22009.99919926 -0026JH4G +00LJLBT4 +000N0114H 14653
2 50464                          -0000UR14 +0003LEC3 +0000D13I     07

# Worst residual: 0.71 km
# MJD 59590.000000 (2022 Jan 11  0:00)
JWST Booster = 2021-130B = NORAD 50464
1 50464U 21130B   22010.99919926 -002E1248 +00ME9XDD +000Q80S4H 14651
2 50464                          -0000VNFP +0003ICAF +0000DTDT     05

# Worst residual: 0.84 km
# MJD 59591.000000 (2022 Jan 12  0:00)
JWST Booster = 2021-130B = NORAD 50464
1 50464U 21130B   22011.99919926 -002LQGPT +00N898I3 +000TMPOPH 14654
2 50464                          -0000WK4V +0003FJEZ +0000EKY6     05

# Worst residual: 0.90 km
# MJD 59592.000000 (2022 Jan 13  0:00)
JWST Booster = 2021-130B = NORAD 50464
1 50464U 21130B   22012.99919926 -002TNPNJ +00O1LCF7 +000X7Y9OH 14651
2 50464                          -0000XGQ9 +0003CYTW +0000FBYW     04

# Worst residual: 0.93 km
# MJD 59593.000000 (2022 Jan 14  0:00)
JWST Booster = 2021-130B = NORAD 50464
1 50464U 21130B   22013.99919926 -0031SQNX +00OUC5VI +0010ZMLGH 14656
2 50464                          -0000YCX2 +0003ALWT +0000G2MJ     09

# Worst residual: 0.97 km
# MJD 59594.000000 (2022 Jan 15  0:00)
JWST Booster = 2021-130B = NORAD 50464
1 50464U 21130B   22014.99919926 -003A5F8O +00PMJH9H +0014XOD3H 14650
2 50464                          -0000Z8HB +00038G9P +0000GT45     09

# Worst residual: 1.05 km
# MJD 59595.000000 (2022 Jan 16  0:00)
JWST Booster = 2021-130B = NORAD 50464
1 50464U 21130B   22015.99919926 -003IPL8Y +00QE90HE +0019231HH 14654
2 50464                          -0001039F +00036HPI +0000HJNI     04

